[
    {
        "Altitude(m)": 622205.8369670737,
        "Argument of Periapsis(deg)": 0.0,
        "Eccentricity": 0.0,
        "Inclination(deg)": 60.0,
        "Latitude(deg)": -52.16235117006099,
        "Longitude(deg)": 57.70049547418568,
        "Mean Anomaly(deg)": -114.5455,
        "RAAN(deg)": 290.0,
        "Satellite Name": "Test1 1291",
        "Satellite Number": 1291,
        "Semi-Major Axis(m)": 6980739.136638005,
        "Time(s)": 0
    },
    {
        "Altitude(m)": 622344.743222132,
        "Argument of Periapsis(deg)": 0.00010418945913296404,
        "Eccentricity": 0.0,
        "Inclination(deg)": 60.0,
        "Latitude(deg)": -52.519929703834414,
        "Longitude(deg)": 58.48170765108752,
        "Mean Anomaly(deg)": -113.92539385453817,
        "RAAN(deg)": 289.99957995086027,
        "Satellite Name": "Test1 1291",
        "Satellite Number": 1291,
        "Semi-Major Axis(m)": 6980739.136638005,
        "Time(s)": 10
    }
]